KUIPER-00165            
1 65778U 25217S   25359.00003472 -.00988982  00000+0 -69186-1 0  9996
2 65778  51.8931   7.8748 0005810  65.1958 211.2172 15.07464052  3906
KUIPER-00166            
1 65779U 25217T   25359.00003472  .00056765  00000+0  15038-2 0  9998
2 65779  51.8704   4.7201 0004241  41.2999  50.7319 15.37794086  4649
KUIPER-00167            
1 65780U 25217U   25359.00003472  .00007779  00000+0  10470-2 0  9996
2 65780  51.8974  15.7768 0001602  67.2186 199.7896 14.79982382  1862
KUIPER-00168            
1 65781U 25217V   25359.00003472 -.00540766  00000+0 -19383-1 0  9998
2 65781  51.8752   4.6482 0002301  96.6205  41.5131 15.30532217  1303
KUIPER-00169            
1 65782U 25217W   25359.00003472 -.02063267  00000+0 -12063+0 0  9993
2 65782  51.8858   6.2952 0004844  54.0145  14.8282 15.15210740  5240
KUIPER-00170            
1 65783U 25217X   25359.00003472 -.00961439  00000+0 -79591-1 0  9991
2 65783  51.8916   9.5609 0007964  48.5156 217.7615 15.01107617  5659
KUIPER-00171            
1 65784U 25217Y   25358.69372700  .00252955  00000+0  18474-2 0  9997
2 65784  51.8561 355.4090 0011213  58.3715 301.8379 15.71861175 14032
KUIPER-00172            
1 65785U 25217Z   25359.00003472  .00046376  00000+0  20159-2 0  9992
2 65785  51.8798   5.4130 0005659  58.5857  20.9592 15.21812321  1685
KUIPER-00173            
1 65786U 25217AA  25359.00003472 -.00922560  00000+0 -54974-1 0  9994
2 65786  51.8824   6.4960 0002208  32.1037 215.4665 15.13517834  5647
KUIPER-00174            
1 65787U 25217AB  25359.00003472 -.00576674  00000+0 -21849-1 0  9991
2 65787  51.8767   4.7941 0000669  46.1549 351.1139 15.28532302  5799
KUIPER-00176            
1 65788U 25217AC  25359.00003472  .00014117  00000+0  17090-2 0  9993
2 65788  51.9008  13.5050 0003648  43.3290 277.2861 14.83856888  1963
KUIPER-00101            
1 65947U 25228A   25359.00003472 -.00021205  00000+0 -26223-2 0  9998
2 65947  51.8994 330.9106 0001220 108.9317 191.6357 14.82084279  5670
KUIPER-00113            
1 65948U 25228B   25359.00003472 -.00051636  00000+0 -47444-2 0  9998
2 65948  51.8940 326.6529 0006215  84.6501  20.1872 14.94486568  5361
KUIPER-00117            
1 65949U 25228C   25359.00003472 -.00022037  00000+0 -25521-2 0  9994
2 65949  51.8989 328.5902 0009971  66.4961 140.0292 14.84764128  2793
KUIPER-00121            
1 65950U 25228D   25359.00003472 -.01780252  00000+0 -13257+0 0  9997
2 65950  51.8890 324.3695 0005026  88.8787 195.0835 15.05983276  1535
KUIPER-00122            
1 65951U 25228E   25359.00003472  .00027886  00000+0  37388-2 0  9996
2 65951  51.8999 333.3522 0000410 205.5842 313.3171 14.79168697  5014
KUIPER-00123            
1 65952U 25228F   25358.66658894  .00040113  00000+0  53527-2 0  9993
2 65952  51.9006 334.8534 0000755 177.4491 182.6475 14.79191097 12082
KUIPER-00124            
1 65953U 25228G   25359.00003472 -.01592430  00000+0 -18271+0 0  9990
2 65953  51.8984 326.0541 0004453  78.2222 112.7110 14.88993019  5308
KUIPER-00125            
1 65954U 25228H   25358.60936773  .00042203  00000+0  11499-2 0  9998
2 65954  51.8802 323.1071 0006683  62.2109 297.9555 15.37046602 12240
KUIPER-00126            
1 65955U 25228J   25359.00003472 -.00025968  00000+0 -32271-2 0  9997
2 65955  51.9002 330.9231 0002259  88.5628  34.8346 14.81988542  2870
KUIPER-00127            
1 65956U 25228K   25358.87321019  .00008871  00000+0  76855-3 0  9991
2 65956  51.8970 328.5251 0005977 100.6800 259.4843 14.97767452 12192
KUIPER-00128            
1 65957U 25228L   25359.00003472 -.01063339  00000+0 -92592-1 0  9995
2 65957  51.8923 324.5773 0004167  92.6531 335.5153 14.99511074  3758
KUIPER-00129            
1 65958U 25228M   25359.00003472 -.00009052  00000+0 -42082-3 0  9998
2 65958  51.8842 322.0938 0003817  48.6671 264.9248 15.18294318  4721
KUIPER-00130            
1 65959U 25228N   25359.00003472 -.01080090  00000+0 -66606-1 0  9997
2 65959  51.8919 323.1315 0006702  78.1912  86.1564 15.12248190  4951
KUIPER-00134            
1 65960U 25228P   25358.89046187  .00052724  00000+0  14756-2 0  9995
2 65960  51.8779 321.9857 0008731  60.2262 299.9591 15.36096204 12280
KUIPER-00135            
1 65961U 25228Q   25359.00003472 -.00083896  00000+0 -51536-2 0  9993
2 65961  51.9032 323.4772 0006995  70.0609 216.6192 15.09908880  5389
KUIPER-00136            
1 65962U 25228R   25359.00003472 -.01005874  00000+0 -53240-1 0  9998
2 65962  51.8860 322.1239 0006660  73.2167 169.6578 15.17869214  1922
KUIPER-00137            
1 65963U 25228S   25359.00003472 -.01067028  00000+0 -38623-1 0  9996
2 65963  51.8837 321.6035 0006476  72.2790 112.8243 15.30670277  2442
KUIPER-00138            
1 65964U 25228T   25358.63246559  .00042339  00000+0  11812-2 0  9997
2 65964  51.8810 323.2598 0008307  70.1091 290.0790 15.36298779 12246
KUIPER-00140            
1 65965U 25228U   25359.00003472 -.00779093  00000+0 -31379-1 0  9990
2 65965  51.8823 321.8649 0007943  64.6977 329.5695 15.26794368  5651
KUIPER-00141            
1 65966U 25228V   25358.60903794  .00038826  00000+0  10606-2 0  9993
2 65966  51.8800 323.1060 0006460  66.8444 293.3223 15.37007247 12248
KUIPER-00146            
1 65967U 25228W   25359.00003472 -.00466801  00000+0 -14709-1 0  9990
2 65967  51.8812 321.4226 0007869  72.1361 194.5789 15.34252200  3910
KUIPER-00149            
1 65968U 25228X   25358.61070663  .00030585  00000+0  85668-3 0  9991
2 65968  51.8796 323.1205 0005849  60.8654 299.2918 15.36346122 12245
KUIPER-00154            
1 65969U 25228Y   25358.87560739  .00046717  00000+0  13005-2 0  9997
2 65969  51.8800 321.8967 0007416  54.8406 305.3274 15.36326745 12289
KUIPER-00157            
1 65970U 25228Z   25358.88805067  .00036470  00000+0  10130-2 0  9997
2 65970  51.8814 321.9846 0008102  72.8913 287.2960 15.36504768 12282
KUIPER-00144            
1 67133U 25301A   25358.91670139  .00001664  00000+0  58681-4 0  9998
2 67133  51.8700  66.4129 0006093 118.1173 101.2600 15.35379035  1643
KUIPER-00164            
1 67134U 25301B   25358.91670139  .00000659  00000+0  29279-4 0  9993
2 67134  51.8722  66.3644 0003142  99.9417 142.2339 15.36079056  2419
KUIPER-00175            
1 67135U 25301C   25358.91670139  .00002415  00000+0  77314-4 0  9999
2 67135  51.8740  66.3262 0002205  56.2483 201.3160 15.36552780  2301
KUIPER-00179            
1 67136U 25301D   25358.91670139  .00001104  00000+0  41520-4 0  9994
2 67136  51.8736  66.3480 0002943  81.3106 166.9781 15.36265901  2412
KUIPER-00181            
1 67137U 25301E   25358.91670139 -.00001084  00000+0 -20690-4 0  9999
2 67137  51.8635  66.4800 0010046 140.4405  46.9042 15.34366509  2398
KUIPER-00183            
1 67138U 25301F   25358.91670139 -.00001665  00000+0 -38269-4 0  9996
2 67138  51.8609  66.5009 0011256 145.2146  31.7236 15.34028571  2404
KUIPER-00184            
1 67139U 25301G   25358.91670139 -.00001405  00000+0 -30116-4 0  9992
2 67139  51.8622  66.4717 0008978 140.7085  50.7586 15.34462760  2517
KUIPER-00186            
1 67140U 25301H   25358.91670139 -.00001717  00000+0 -38693-4 0  9998
2 67140  51.8679  66.4394 0007553 128.2971  78.6798 15.34953429  1302
KUIPER-00187            
1 67141U 25301J   25358.91670139  .00001941  00000+0  65810-4 0  9997
2 67141  51.8708  66.3870 0004372 112.5131 119.3699 15.35781821  2023
KUIPER-00188            
1 67142U 25301K   25358.91670139 -.00001610  00000+0 -35699-4 0  9995
2 67142  51.8690  66.4451 0007352 133.0550  70.8790 15.34861976  1306
KUIPER-00191            
1 67143U 25301L   25358.91670139 -.00001024  00000+0 -18476-4 0  9999
2 67143  51.8669  66.4312 0006640 130.3630  80.8558 15.35091462  2262
KUIPER-00196            
1 67144U 25301M   25358.91670139  .00001440  00000+0  51339-4 0  9995
2 67144  51.8727  66.3691 0003827  97.1207 141.9670 15.35972457  1963
KUIPER-00204            
1 67145U 25301N   25358.91670139  .00001194  00000+0  43697-4 0  9990
2 67145  51.8741  66.3295 0002006  73.4953 181.4627 15.36499893  2346
KUIPER-00210            
1 67146U 25301P   25358.91670139 -.00001802  00000+0 -42284-4 0  9990
2 67146  51.8596  66.4952 0010570 146.9583  32.7113 15.34110797  2402
KUIPER-00221            
1 67147U 25301Q   25358.91670139  .00001804  00000+0  62103-4 0  9993
2 67147  51.8716  66.3917 0005020 109.2387 119.7723 15.35687089  1726
KUIPER-00232            
1 67148U 25301R   25358.91670139  .00001607  00000+0  54834-4 0  9997
2 67148  51.8740  66.3224 0001576  49.5015 210.9294 15.36664693  2119
KUIPER-00241            
1 67149U 25301S   25358.91670139  .00000718  00000+0  30842-4 0  9993
2 67149  51.8739  66.3518 0002828  94.8815 150.6825 15.36190221  2566
KUIPER-00245            
1 67150U 25301T   25358.91670139  .00001310  00000+0  48227-4 0  9990
2 67150  51.8723  66.3964 0005012 117.7466 108.4046 15.35592343  1724
KUIPER-00246            
1 67151U 25301U   25358.91670139  .00001364  00000+0  49317-4 0  9991
2 67151  51.8733  66.3732 0003840 108.2138 128.2517 15.35898544  2251
KUIPER-00247            
1 67152U 25301V   25358.91670139 -.00001755  00000+0 -41117-4 0  9998
2 67152  51.8623  66.5069 0011227 150.1751  23.9665 15.33926121  2155
KUIPER-00248            
1 67153U 25301W   25358.91670139 -.00001659  00000+0 -37416-4 0  9999
2 67153  51.8671  66.4644 0008727 138.5022  56.3562 15.34604863  2400
KUIPER-00249            
1 67154U 25301X   25358.91670139 -.00002009  00000+0 -47388-4 0  9999
2 67154  51.8647  66.4512 0007839 135.4035  66.2030 15.34799009  2082
KUIPER-00250            
1 67155U 25301Y   25358.91670139 -.00001468  00000+0 -31127-4 0  9992
2 67155  51.8709  66.4181 0006136 126.5285  89.8784 15.35280296  2262
KUIPER-00251            
1 67156U 25301Z   25358.91670139 -.00001765  00000+0 -40407-4 0  9994
2 67156  51.8658  66.4590 0008743 133.8520  63.7876 15.34698080  2423
